#aV2020 12  5  0  0  0.00000000     288 DD+AD WGS84 FIT  NGA
## 2134 518400.00000000   300.00000000 59188 0.0000000000000
+   32     1  2  3  4  5  6  7  8  9 10 11 12 13 14 15 16 17
+         18 19 20 21 22 23 24 25 26 27 28 29 30 31 32  0  0
+          0  0  0  0  0  0  0  0  0  0  0  0  0  0  0  0  0
+          0  0  0  0  0  0  0  0  0  0  0  0  0  0  0  0  0
+          0  0  0  0  0  0  0  0  0  0  0  0  0  0  0  0  0
++         2  2  2  2  2  2  2  2  2  2  2  2  2  2  2  2  2
++         2  2  2  2  2  2  2  2  2  2  2  2  2  2  2  0  0
++         0  0  0  0  0  0  0  0  0  0  0  0  0  0  0  0  0
++         0  0  0  0  0  0  0  0  0  0  0  0  0  0  0  0  0
++         0  0  0  0  0  0  0  0  0  0  0  0  0  0  0  0  0
%c cc cc ccc ccc cccc cccc cccc cccc ccccc ccccc ccccc ccccc
%c cc cc ccc ccc cccc cccc cccc cccc ccccc ccccc ccccc ccccc
%f  0.0000000  0.000000000  0.00000000000  0.000000000000000
%f  0.0000000  0.000000000  0.00000000000  0.000000000000000
%i    0    0    0    0      0      0      0      0         0
%i    0    0    0    0      0      0      0      0         0
/*      NGA, ST. LOUIS,MO.                                  
/*   EPHEMERIS COMPUTED FROM 2 DAYS OF DATA                 
/*   EPOCHA v5 SMOOTHER                                     
/*   G1762 IERS2010 SATAF SATAPC                            
*  2020 12  5 19 25  0.00000000
P  1 -21518.094225 -13530.471588   8032.462759    799.645657                    
V  1  -6217.096719  -8539.633033 -29822.997953     -0.048021                    
P  2  11291.379967  20846.338832  12631.444567   -550.899957                    
V  2 -12894.159080  -7967.448496  26028.049707     -0.045349                    
P  3 -14150.008979  -5265.635544  21774.009675    -22.066553                    
V  3   6775.658548 -26979.629142  -2016.662882     -0.099923                    
P  4 -23653.026697  -2548.048688  11858.821151   -161.679807                    
V  4  13993.879382  -6000.199909  26581.120462     -0.034044                    
P  5   4346.503127  22932.009744 -12658.401336    -27.612439                    
V  5  -5756.450479  15049.889500  25778.493700     -0.009478                    
P  6  -2472.081097  16672.539163  20576.814077     -3.288160                    
V  6 -19256.707055 -17401.715254  11859.665346     -0.009500                    
P  7 -18533.010005    639.136838 -18861.523116   -428.060893                    
V  7 -16606.375767 -18074.795072  14958.409238     -0.074838                    
P  8 -17602.274844  -7816.496691 -18400.049293     -1.826952                    
V  8  21866.907241  -8040.801943 -17216.281431     -0.013930                    
P  9 -25523.691255   7344.796401    695.849309   -297.891513                    
V  9     15.225884  -3215.415709  31542.104474     -0.045294                    
P 10  11675.787659 -21914.626822  -8952.900947     -9.082402                    
V 10   -200.276749  11862.374923 -29245.858259     -0.089073                    
P 11 -22672.774583 -11985.374016  -6597.313167    -89.556690                    
V 11   8844.800371  -1880.460467 -29352.629485      0.105711                    
P 12  12211.428435   9365.350050  21428.781471     30.975728                    
V 12  -8897.859256  26242.181017  -6181.176217     -0.051815                    
P 13   7995.131552  13717.204495 -21445.891740     71.949431                    
V 13 -26482.464234   4581.256631  -6872.385453      0.039558                    
P 14 -13817.763373  19925.410288 -10845.769436     54.871330                    
V 14   1525.786005 -13904.173029 -27502.400839      0.122082                    
P 15  19219.521644   6385.303824 -17717.878461   -185.306114                    
V 15 -19399.805691  10074.436592 -17404.195915      0.025939                    
P 16  -1680.767889 -22816.965640 -13307.921697   -246.167905                    
V 16   7419.088501 -15091.594884  25811.187556     -0.053872                    
P 17 -16263.619283  14412.766382  15686.825823    363.148986                    
V 17 -18934.110359   2875.509761 -22934.452918      0.050134                    
P 18  16973.191321  -2780.868550 -20261.078124    329.404968                    
V 18  17427.627518  18885.552489  11955.796635      0.040918                    
P 19  -9996.016984  14894.796617  19276.289813    -69.218002                    
V 19 -24866.949790   3312.916148 -15309.761881      0.050145                    
P 20  14786.962026 -12258.178979 -18302.688199    525.733338                    
V 20   -373.611693  23362.071379 -16271.317762     -0.001601                    
P 21 -20860.328179 -16774.101818    657.350441     74.847476                    
V 21   1742.292621  -2010.146970 -31381.843720      0.035762                    
P 22 -12312.455741 -13946.463989  19206.905025   -719.836481                    
V 22   5051.452233 -23538.856368 -13837.960794      0.058153                    
P 23  15173.313425 -13500.898457 -17127.849808    107.499854                    
V 23  -2965.976818  21566.828713 -19689.723142      0.034469                    
P 24  21886.396987  14933.649737   3603.047034      5.530993                    
V 24   1596.322589   5584.485051 -30498.307835     -0.004935                    
P 25  15855.491969  -5392.207411  20305.261797     34.421363                    
V 25  -5199.975481  25904.431221  11075.287895      0.069630                    
P 26   4365.305915 -26027.858186  -1298.161208      9.798711                    
V 26   3806.870677   -873.786038  31493.871647      0.059408                    
P 27  -5223.051562 -14020.598577 -22100.933317    -28.555280                    
V 27  26566.568715  -7655.008759  -1090.664943     -0.081353                    
P 28 -12505.616429  22422.652018  -6572.542588    646.915291                    
V 28    875.674935  -9280.983943 -30485.275831     -0.047976                    
P 29  26170.637542  -4081.392120   2252.423046   -250.201954                    
V 29  -2407.611403   2571.038359  32079.199544     -0.075044                    
P 30 -11409.113593  10776.934416 -21383.271651   -347.367539                    
V 30 -19209.995951 -19465.064243    222.123371     -0.064289                    
P 31   1019.161724 -18146.714789  19135.103785    -85.757946                    
V 31  18469.852005  16346.806806  14926.886687     -0.023729                    
P 32  15331.811636 -15619.195826  15019.133606      5.957674                    
V 32  18837.571754  -3299.746763 -22950.711741      0.028082                    
EOF
